[{"OBJECT_NAME":"STARLINK-36525","OBJECT_ID":"2026-008F","EPOCH":"2026-03-09T09:05:35.382336","MEAN_MOTION":15.27594618,"ECCENTRICITY":3.984e-5,"INCLINATION":42.9969,"RA_OF_ASC_NODE":207.0748,"ARG_OF_PERICENTER":244.5603,"MEAN_ANOMALY":115.5208,"EPHEMERIS_TYPE":0,"CLASSIFICATION_TYPE":"U","NORAD_CAT_ID":67450,"ELEMENT_SET_NO":999,"REV_AT_EPOCH":952,"BSTAR":0.0015360749,"MEAN_MOTION_DOT":0.00042269,"MEAN_MOTION_DDOT":0},{"OBJECT_NAME":"OBJECT N","OBJECT_ID":"2019-093N","EPOCH":"2026-03-09T21:41:56.087232","MEAN_MOTION":15.29897693,"ECCENTRICITY":0.0006278,"INCLINATION":98.0505,"RA_OF_ASC_NODE":226.9456,"ARG_OF_PERICENTER":33.3806,"MEAN_ANOMALY":326.7828,"EPHEMERIS_TYPE":0,"CLASSIFICATION_TYPE":"U","NORAD_CAT_ID":44891,"ELEMENT_SET_NO":999,"REV_AT_EPOCH":33957,"BSTAR":0.0010567776,"MEAN_MOTION_DOT":0.00030617,"MEAN_MOTION_DDOT":0}]
